HAWK-2C                 
1 47502U 21006CT  26068.67595434  .00008129  00000+0  25493-3 0  9997
2 47502  97.2417 114.9961 0006943 184.0877 176.0310 15.33286436284247
STARLINK-35024          
1 65410U 25192G   26068.68096810  .00025289  00000+0  84166-3 0  9998
2 65410  53.1586 232.3417 0000809  35.0037 325.1017 15.31013721 29388
